GLOBALSTAR M045         
1 25676U 99019A   24252.32859241 -.00000011  00000+0  72625-3 0  9990
2 25676  51.9994  28.6148 0001059  78.9139 293.1035 12.27044927159035
GLOBALSTAR M019         
1 25677U 99019B   24252.09546554  .00000017  00000+0  11125-2 0  9997
2 25677  51.9876 139.7990 0001596  86.1117  59.1531 12.13862899151075
GLOBALSTAR M044         
1 25678U 99019C   24251.86625455 -.00000061  00000+0  32170-3 0  9994
2 25678  51.9974  56.4747 0005886 208.8352 302.1998 11.90237869137709
GLOBALSTAR M042         
1 25679U 99019D   24252.40390153 -.00000051  00000+0  38316-3 0  9997
2 25679  52.0005 126.4272 0003639  73.7090  96.9407 12.22067642150872
GLOBALSTAR M025         
1 25770U 99031A   24251.97046800 -.00000053  00000+0  43456-3 0  9994
2 25770  51.9802  93.0441 0002188  46.6300 125.1355 11.22553940450011
GLOBALSTAR M049         
1 25771U 99031B   24251.93986130 -.00000044  00000+0  73299-3 0  9998
2 25771  51.9861 113.6952 0002402 269.5985  90.4536 11.12109796 86023
GLOBALSTAR M047         
1 25772U 99031C   24251.91765295 -.00000027  00000+0  11743-2 0  9990
2 25772  51.9820 137.6827 0016388 135.3094 224.9035 11.31922778439142
GLOBALSTAR M052         
1 25773U 99031D   24251.93202205 -.00000009  00000+0  19192-2 0  9996
2 25773  51.9834 226.3582 0002659  57.1049 343.0031 11.15053474447024
